     2.100          NAVIGATION                              RINEX VERSION / TYPE
fic2rin                                 07/05/2016 00:08:09 PGM / RUN BY / DATE
                                                            END OF HEADER
23 16  7  4  3 59 44.0 -.180736649781D-03 -.159161572810D-11  .000000000000D+00
     .150000000000D+02 -.219062500000D+02  .515092884258D-08 -.393193407569D-01
    -.120699405670D-05  .110956557328D-01  .827945768833D-05  .515364772415D+04
     .100784000000D+06  .484287738800D-07 -.823938535387D+00  .875443220139D-07
     .945660520065D+00  .208375000000D+03 -.255633206284D+01 -.836677708128D-08
    -.821462788651D-09  .100000000000D+01  .190400000000D+04  .000000000000D+00
     .240000000000D+01  .000000000000D+00 -.200234353542D-07  .150000000000D+02
     .938460000000D+05  .400000000000D+01
 3 16  7  4  3 59 44.0 -.117941759527D-03 -.318323145621D-11  .000000000000D+00
     .160000000000D+02  .176250000000D+02  .521271713059D-08 -.118377633989D-01
     .970438122749D-06  .209520338103D-03  .542774796486D-05  .515365839958D+04
     .100784000000D+06  .614672899246D-07 -.186831412687D+01 -.931322574615D-08
     .958878142906D+00  .274406250000D+03 -.146972441974D+01 -.826713007344D-08
     .378944355982D-09  .100000000000D+01  .190400000000D+04  .000000000000D+00
     .240000000000D+01  .630000000000D+02  .186264514923D-08  .160000000000D+02
     .946260000000D+05  .400000000000D+01
 3 16  7  4  3 59 44.0 -.117941759527D-03 -.318323145621D-11  .000000000000D+00
     .160000000000D+02  .176250000000D+02  .521271713059D-08 -.118377633989D-01
     .970438122749D-06  .209520338103D-03  .542774796486D-05  .515365839958D+04
     .100784000000D+06  .614672899246D-07 -.186831412687D+01 -.931322574615D-08
     .958878142906D+00  .274406250000D+03 -.146972441974D+01 -.826713007344D-08
     .378944355982D-09  .100000000000D+01  .190400000000D+04  .000000000000D+00
     .240000000000D+01  .630000000000D+02  .186264514923D-08  .160000000000D+02
     .949560000000D+05  .400000000000D+01
 3 16  7  4  3 59 28.0 -.701160170138D-04 -.318323145621D-11  .000000000000D+00
     .186000000000D+03  .176250000000D+02  .521271713059D-08 -.141715302783D-01
     .970438122749D-06  .209520338103D-03  .542774796486D-05  .515365839958D+04
     .100768000000D+06  .614672899246D-07 -.186831399521D+01 -.931322574615D-08
     .958878137055D+00  .274406250000D+03 -.146972441974D+01 -.826713007344D-08
     .378944355982D-09  .100000000000D+01  .190400000000D+04  .000000000000D+00
     .240000000000D+01  .630000000000D+02  .186264514923D-08  .186000000000D+03
     .975360000000D+05  .400000000000D+01
 5 16  7  4  3 59 44.0 -.108044594526D-03  .284217094304D-11  .000000000000D+00
     .230000000000D+02  .232500000000D+02  .551201531185D-08  .204555550283D+01
     .128708779812D-05  .456173100974D-02  .542216002941D-05  .515353838158D+04
     .100784000000D+06 -.199303030968D-06 -.188072814687D+01  .875443220139D-07
     .945943910704D+00  .269062500000D+03  .453221039847D+00 -.843606568171D-08
     .421088968617D-09  .100000000000D+01  .190400000000D+04  .000000000000D+00
     .240000000000D+01  .000000000000D+00 -.107102096081D-07  .230000000000D+02
     .976260000000D+05  .400000000000D+01
 4 16  7  4  4  0  0.0 -.258624088019D-03  .000000000000D+00  .000000000000D+00
     .870000000000D+02  .577500000000D+02  .542344019377D-08  .236803371066D+01
     .290013849735D-05  .849124719389D-02  .305473804474D-06  .515365482521D+04
     .100800000000D+06  .353902578354D-07  .129627628796D+01 -.210478901863D-06
     .983015397371D+00  .386281250000D+03  .901100455228D+00 -.822677124947D-08
     .210723063176D-09  .100000000000D+01  .190400000000D+04  .000000000000D+00
     .340000000000D+01  .630000000000D+02 -.195577740669D-07  .870000000000D+02
     .978360000000D+05  .400000000000D+01
27 16  7  4  3 59 44.0  .110686756670D-03  .432009983342D-11  .000000000000D+00
     .200000000000D+01 -.145406250000D+03  .417195949314D-08  .125941127608D+01
    -.762566924095D-05  .376765418332D-02  .559166073799D-05  .515365046501D+04
     .100784000000D+06 -.204890966415D-07  .231610902801D+01  .726431608200D-07
     .971807942467D+00  .276937500000D+03  .320896699756D+00 -.812998150351D-08
    -.316084594764D-09  .100000000000D+01  .190400000000D+04  .000000000000D+00
     .240000000000D+01  .000000000000D+00  .139698386192D-08  .200000000000D+01
     .982260000000D+05  .400000000000D+01
 3 16  7  4  3 59 12.0 -.701164826751D-04 -.318323145621D-11  .000000000000D+00
     .170000000000D+02  .176250000000D+02  .521271713059D-08 -.165084716898D-01
     .970438122749D-06  .209519406781D-03  .542774796486D-05  .515365839958D+04
     .100752000000D+06  .614672899246D-07 -.186831386501D+01 -.931322574615D-08
     .958878137055D+00  .274406250000D+03 -.146972124082D+01 -.826713007344D-08
     .378944355982D-09  .100000000000D+01  .190400000000D+04  .000000000000D+00
     .240000000000D+01  .000000000000D+00  .186264514923D-08  .170000000000D+02
     .987660000000D+05  .400000000000D+01
17 16  7  4  3 59 44.0 -.203970819712D-03  .000000000000D+00  .000000000000D+00
     .210000000000D+02 -.147750000000D+03  .407124101210D-08  .127090770705D+01
    -.770576298237D-05  .109977863031D-01  .536814332008D-05  .515371880722D+04
     .100784000000D+06 -.169500708580D-06  .236622929044D+01 -.912696123123D-07
     .976900960098D+00  .283750000000D+03 -.192618606598D+01 -.816284001505D-08
    -.270368404786D-09  .100000000000D+01  .190400000000D+04  .000000000000D+00
     .240000000000D+01  .000000000000D+00 -.107102096081D-07  .210000000000D+02
     .100506000000D+06  .400000000000D+01
 3 16  7  4  5 59 12.0 -.701393000782D-04 -.318323145621D-11  .000000000000D+00
     .240000000000D+02  .182187500000D+02  .520450250271D-08  .103362827845D+01
     .101514160633D-05  .209308811463D-03  .538304448128D-05  .515365806389D+04
     .107952000000D+06  .186264514923D-08 -.186837351403D+01  .000000000000D+00
     .958881131648D+00  .276437500000D+03 -.146966234520D+01 -.824034324337D-08
     .420731810883D-09  .100000000000D+01  .190400000000D+04  .000000000000D+00
     .240000000000D+01  .000000000000D+00  .186264514923D-08  .240000000000D+02
     .100806000000D+06  .400000000000D+01
 5 16  7  4  5 59 44.0 -.108024105430D-03  .284217094304D-11  .000000000000D+00
     .240000000000D+02  .242500000000D+02  .542451166697D-08  .309591595655D+01
     .128522515297D-05  .456240493804D-02  .574626028538D-05  .515353689575D+04
     .107984000000D+06 -.670552253723D-07 -.188078839423D+01 -.726431608200D-07
     .945947897155D+00  .263562500000D+03  .453131608739D+00 -.826105839196D-08
     .462519265784D-09  .100000000000D+01  .190400000000D+04  .000000000000D+00
     .240000000000D+01  .000000000000D+00 -.107102096081D-07  .240000000000D+02
     .100806000000D+06  .400000000000D+01
17 16  7  4  5 59 44.0 -.203970819712D-03  .000000000000D+00  .000000000000D+00
     .220000000000D+02 -.158093750000D+03  .390730561211D-08  .232104609565D+01
    -.813044607639D-05  .109985070303D-01  .547431409359D-05  .515371870613D+04
     .107984000000D+06  .147148966789D-06  .236617137791D+01 -.158324837685D-06
     .976900486112D+00  .280937500000D+03 -.192617581092D+01 -.786139888739D-08
    -.249653256203D-09  .100000000000D+01  .190400000000D+04  .000000000000D+00
     .240000000000D+01  .000000000000D+00 -.107102096081D-07  .220000000000D+02
     .100806000000D+06  .400000000000D+01
27 16  7  4  5 59 44.0  .110717955977D-03  .432009983342D-11  .000000000000D+00
     .400000000000D+01 -.135218750000D+03  .416553065393D-08  .230996851569D+01
    -.701844692230D-05  .376810878515D-02  .539049506187D-05  .515364776421D+04
     .107984000000D+06 -.782310962677D-07  .231605034598D+01  .204890966415D-07
     .971805869512D+00  .279906250000D+03  .320532844234D+00 -.808855120634D-08
    -.280368821344D-09  .100000000000D+01  .190400000000D+04  .000000000000D+00
     .240000000000D+01  .000000000000D+00  .139698386192D-08  .400000000000D+01
     .100806000000D+06  .400000000000D+01
 1 16  7  4  6  0  0.0  .257492065430D-04  .125055521494D-11  .000000000000D+00
     .760000000000D+02 -.435937500000D+02  .416874507354D-08  .225916333842D+00
    -.223517417908D-05  .566395442002D-02  .123940408230D-04  .515364745903D+04
     .108000000000D+06  .540167093277D-07 -.290976665882D+01  .102445483208D-06
     .965094078899D+00  .145562500000D+03  .486078017523D+00 -.778032408173D-08
     .592881838766D-09  .100000000000D+01  .190400000000D+04  .000000000000D+00
     .240000000000D+01  .000000000000D+00  .512227416039D-08  .760000000000D+02
     .100806000000D+06  .400000000000D+01
 2 16  7  4  6  0  0.0  .580009073019D-03 -.375166564481D-11  .000000000000D+00
     .560000000000D+02 -.547812500000D+02  .470376735936D-08  .608301279859D+00
    -.298395752907D-05  .157811458921D-01  .117849558592D-04  .515359415627D+04
     .108000000000D+06 -.206753611565D-06 -.295608593239D+01  .108033418655D-06
     .943892620139D+00  .146937500000D+03 -.210461416839D+01 -.817712632442D-08
     .394302138552D-09  .100000000000D+01  .190400000000D+04  .000000000000D+00
     .240000000000D+01  .000000000000D+00 -.200234353542D-07  .560000000000D+02
     .100806000000D+06  .400000000000D+01
 4 16  7  4  6  0  0.0 -.258623622358D-03  .113686837722D-12  .000000000000D+00
     .104000000000D+03  .621562500000D+02  .538165273887D-08 -.286494725079D+01
     .332109630108D-05  .849067268427D-02  .370666384697D-06  .515365584946D+04
     .108000000000D+06  .670552253723D-07  .129621812965D+01 -.372529029846D-07
     .983017189446D+00  .384531250000D+03  .901094482134D+00 -.809569436102D-08
     .154649298907D-09  .100000000000D+01  .190400000000D+04  .000000000000D+00
     .485000000000D+01  .630000000000D+02 -.195577740669D-07  .104000000000D+03
     .100806000000D+06  .400000000000D+01
